     3.02           N: GNSS NAV DATA    C: BEIDOU           RINEX VERSION / TYPE
Spider V6.2.0.6944  ICGC                20180118 001950 UTC PGM / RUN BY / DATE
     4     4   573     6                                    LEAP SECONDS
                                                            END OF HEADER
C14 2018 01 17 23 00 00 1.473490847275D-04 2.318767400311D-11 0.000000000000D+00
     1.000000000000D+00 1.075000000000D+01 3.804086823322D-09 2.976239596554D+00
     5.820766091347D-07 1.813188195229D-03 9.268056601286D-06 5.282608236313D+03
     3.420000000000D+05 2.002343535423D-08 9.185876542229D-01-3.958120942116D-08
     9.574446953118D-01 1.710625000000D+02-2.278931841127D+00-6.615989978087D-09
     6.696707632869D-10                    6.280000000000D+02                   
     2.000000000000D+00 0.000000000000D+00 6.100000060627D-09 1.400000004814D-09
     3.420000000000D+05 0.000000000000D+00                                      
C13 2018 01 17 23 00 00-1.520992955193D-04-2.215205796574D-11 0.000000000000D+00
     1.000000000000D+00-6.128906250000D+02 1.236122870729D-09-1.023237494635D+00
    -2.027628943324D-05 3.101968206465D-03-5.899928510189D-06 6.493621963501D+03
     3.420000000000D+05 2.263113856316D-07-7.559251653974D-01-9.126961231232D-08
     9.744599130468D-01 4.295468750000D+02-3.035472227945D+00-2.466174153781D-09
    -6.128826890439D-10                    6.280000000000D+02                   
     2.000000000000D+00 0.000000000000D+00-1.009999994750D-08 2.399999976532D-09
     3.420000000000D+05 0.000000000000D+00                                      
C05 2018 01 17 23 00 00-1.234195660800D-04-1.061106758016D-11 0.000000000000D+00
     1.000000000000D+00-1.276562500000D+02 1.371128544037D-09-2.504601077865D+00
    -4.170462489128D-06 5.659562302753D-04 2.497108653188D-05 6.493311048508D+03
     3.420000000000D+05-1.615844666958D-07-2.957502246285D+00 1.583248376846D-08
     6.547481359737D-02-7.594218750000D+02 1.273154051405D-02-2.900120699145D-10
    -5.621662579891D-10                    6.280000000000D+02                   
     2.000000000000D+00 0.000000000000D+00-1.400000004814D-09-9.399999889581D-09
     3.420004000000D+05 0.000000000000D+00                                      
C06 2018 01 17 23 00 00-6.750737084076D-04-4.642508599773D-12 0.000000000000D+00
     1.000000000000D+00 1.465156250000D+02 1.763644896791D-09 2.851003711908D+00
     4.876870661974D-06 5.931369727477D-03 6.522517651320D-06 6.493596227646D+03
     3.420000000000D+05-2.421438694000D-08 1.361109578329D+00-1.033768057823D-07
     9.443322372624D-01 3.950000000000D+01-2.337116695480D+00-2.072229277061D-09
     8.907513615597D-10                    6.280000000000D+02                   
     2.000000000000D+00 0.000000000000D+00 7.799999757196D-09-1.700000029636D-09
     3.435300000000D+05 0.000000000000D+00                                      
C09 2018 01 17 23 00 00-4.928081762046D-04 3.760280975484D-11 0.000000000000D+00
     1.000000000000D+00 1.526562500000D+02 1.749715705657D-09 2.642583151224D+00
     5.268491804600D-06 4.742165096104D-03 5.550682544708D-06 6.493438159943D+03
     3.420000000000D+05-3.399327397346D-08 1.402872233660D+00-8.754432201385D-08
     9.496158292310D-01 6.717187500000D+01-2.562689372310D+00-2.092229944850D-09
     8.532498041447D-10                    6.280000000000D+02                   
     2.000000000000D+00 0.000000000000D+00 6.300000077175D-09 3.600000075821D-09
     3.440100000000D+05 0.000000000000D+00                                      
